KAITUO 1B               
1 40912U 15049P   17267.23876421  .00001339  00000-0  69184-4 0  9999
2 40912  97.4518 273.4746 0014469 211.7071 207.2748 15.17932904111316
TIANWANG 1C (TW-1C)     
1 40926U 15051B   17267.06608093  .00008133  00000-0  17824-3 0  9998
2 40926  97.2201 305.9033 0012010 160.7205 253.9383 15.44278355112171
TIANWANG 1B (TW-1B)     
1 40927U 15051C   17267.07844652  .00007738  00000-0  17630-3 0  9998
2 40927  97.2288 305.8872 0011474 170.2308 246.4192 15.43144307112117
TIANWANG 1A (TW-1A)     
1 40928U 15051D   17267.07740510  .00003267  00000-0  92769-4 0  9997
2 40928  97.2182 301.1111 0011766 193.8037 224.6757 15.36842847111884
LAPAN-A2 (IO-86)        
1 40931U 15052B   17266.72734888  .00000716  00000-0  10655-4 0  9994
2 40931   5.9970 250.0890 0013044 200.9133 159.0455 14.76543366107555
LQSAT                   
1 40958U 15057A   17267.22317880  .00000054  00000-0  16114-4 0  9994
2 40958  97.9709 340.7766 0019646 107.3952 252.9428 14.72986786105696
CHUBUSAT-2              
1 41338U 16012B   17266.85339029  .00000484  00000-0  31341-4 0  9992
2 41338  31.0028 205.5981 0013944 315.6980  44.2539 14.99809197 87816
CHUBUSAT-3              
1 41339U 16012C   17267.16751002  .00000455  00000-0  28906-4 0  9998
2 41339  31.0103 202.5899 0013699 325.1917  34.7822 15.00009724 87842
OUFTI-1                 
1 41458U 16025C   17266.88542077  .00000811  00000-0  47715-4 0  9997
2 41458  98.1766 310.0952 0172310 320.1513  38.7165 15.03603958 77419
E-ST@R-II               
1 41459U 16025D   17267.25032420  .00001780  00000-0  99156-4 0  9998
2 41459  98.1772 310.4105 0172352 319.3541  39.4921 15.03427728 77459
AAUSAT 4                
1 41460U 16025E   17267.11879364  .00002481  00000-0  13602-3 0  9991
2 41460  98.1698 310.4417 0164416 317.5492  41.3116 15.04469341 77468
NUSAT 1 (LO-87)         
1 41557U 16033B   17267.21357349  .00001888  00000-0  72995-4 0  9993
2 41557  97.4577 346.7196 0014647  24.3121 335.8806 15.27409636 73549
BEESAT-4                
1 41619U 16040W   17266.68237954  .00001864  00000-0  86707-4 0  9999
2 41619  97.4525 328.0865 0013608  85.5977 274.6813 15.21132183 57567
PRATHAM                 
1 41783U 16059A   17267.13637453  .00000071  00000-0  23263-4 0  9997
2 41783  98.1569 327.4350 0033065 208.5942 151.3447 14.62860871 53066
ALSAT 1N                
1 41789U 16059G   17267.17963083  .00000142  00000-0  36257-4 0  9994
2 41789  98.1575 328.1720 0027767 201.3149 158.6903 14.64078352 53097
NAYIF-1 (EO-88)         
1 42017U 17008BX  17267.10938982  .00002040  00000-0  88816-4 0  9994
2 42017  97.4853 328.3423 0005419 223.8888 136.1918 15.23380664 33547
LILACSAT-1              
1 42725U 98067ME  17267.23982503  .00018477  00000-0  24929-3 0  9991
2 42725  51.6386 262.8977 0006115 333.7243  26.3438 15.57829274 18904
MAX VALIER SAT          
1 42778U 17036P   17267.06696705  .00001272  00000-0  61165-4 0  9992
2 42778  97.4418 325.7039 0011183 282.5662  77.4323 15.20590769 14057
